[{"OBJECT_NAME":"STARLINK-3732","OBJECT_ID":"2022-029AQ","EPOCH":"2026-03-09T05:36:16.832160","MEAN_MOTION":15.08837305,"ECCENTRICITY":0.00013239,"INCLINATION":53.2172,"RA_OF_ASC_NODE":71.1684,"ARG_OF_PERICENTER":89.5387,"MEAN_ANOMALY":270.5757,"EPHEMERIS_TYPE":0,"CLASSIFICATION_TYPE":"U","NORAD_CAT_ID":52126,"ELEMENT_SET_NO":999,"REV_AT_EPOCH":22085,"BSTAR":-1.4412665e-5,"MEAN_MOTION_DOT":-5.17e-6,"MEAN_MOTION_DDOT":0},{"OBJECT_NAME":"THOR ABLESTAR DEB","OBJECT_ID":"1961-015G","EPOCH":"2026-03-09T12:36:21.518784","MEAN_MOTION":14.9924172,"ECCENTRICITY":0.00458994,"INCLINATION":66.74,"RA_OF_ASC_NODE":114.2823,"ARG_OF_PERICENTER":282.1843,"MEAN_ANOMALY":77.4151,"EPHEMERIS_TYPE":0,"CLASSIFICATION_TYPE":"U","NORAD_CAT_ID":122,"ELEMENT_SET_NO":999,"REV_AT_EPOCH":37932,"BSTAR":0.00092278357,"MEAN_MOTION_DOT":0.00011411,"MEAN_MOTION_DDOT":0}]
